IRIDIUM 155             
1 43573U 18061E   22310.34656339  .00000337  00000+0  11316-3 0  9992
2 43573  86.3975 247.7851 0002200  76.1084 284.0357 14.34221902224326
IRIDIUM 154             
1 43574U 18061F   22310.32752278  .00000330  00000+0  11086-3 0  9997
2 43574  86.3981 247.8632 0002350  89.7905 270.3560 14.34223917224377
IRIDIUM 163             
1 43575U 18061G   22310.37827060  .00000317  00000+0  10622-3 0  9995
2 43575  86.3980 247.7961 0002971  72.6549 287.4972 14.34215038224354
IRIDIUM 156             
1 43576U 18061H   22310.35289048  .00000327  00000+0  10962-3 0  9990
2 43576  86.3972 247.8136 0001930  81.0779 279.0635 14.34211531224340
IRIDIUM 164             
1 43577U 18061J   22310.33387032  .00000338  00000+0  11344-3 0  9998
2 43577  86.3978 247.8420 0002231  91.4849 268.6602 14.34224001224389
IRIDIUM 159             
1 43578U 18061K   22310.37191978  .00000332  00000+0  11156-3 0  9990
2 43578  86.3978 247.7907 0002258  88.0117 272.1338 14.34224798224354
IRIDIUM 180             
1 43922U 19002A   22310.16212244  .00000338  00000+0  11372-3 0  9992
2 43922  86.4022 184.8396 0002222  96.9281 263.2168 14.34215239199939
IRIDIUM 176             
1 43923U 19002B   22310.38158678  .00001053  00000+0  16302-3 0  9990
2 43923  86.6158 184.7874 0002451  85.4271 274.7226 14.72254699205214
IRIDIUM 168             
1 43924U 19002C   22310.15577983  .00000327  00000+0  10967-3 0  9994
2 43924  86.4026 184.8822 0002246  89.9785 270.1668 14.34215660199914
IRIDIUM 173             
1 43925U 19002D   22310.35239700  .00000298  00000+0  99431-4 0  9990
2 43925  86.4022 184.7428 0002188  89.4636 270.6811 14.34214960199925
IRIDIUM 169             
1 43926U 19002E   22310.47489870  .00000443  00000+0  13835-3 0  9994
2 43926  86.4283 216.2361 0005164  29.9145 330.2347 14.38606212200630
IRIDIUM 172             
1 43927U 19002F   22310.13674975  .00000313  00000+0  10483-3 0  9992
2 43927  86.4022 184.8370 0002185  94.2216 265.9229 14.34218125199904
IRIDIUM 175             
1 43928U 19002G   22310.17150611  .00001078  00000+0  16699-3 0  9997
2 43928  86.6160 184.7098 0002511  85.9025 274.2479 14.72257303205174
IRIDIUM 171             
1 43929U 19002H   22310.18748093  .00000281  00000+0  93353-4 0  9994
2 43929  86.4033 184.9752 0002286  90.2060 269.9398 14.34212884199905
IRIDIUM 170             
1 43930U 19002J   22310.18386733  .00001047  00000+0  16215-3 0  9997
2 43930  86.6156 184.8752 0002443  88.0391 272.1106 14.72256124205190
IRIDIUM 167             
1 43931U 19002K   22310.18114313  .00000307  00000+0  10240-3 0  9991
2 43931  86.4029 184.8291 0002308  93.4969 266.6491 14.34211586199904
